start=new Date('2021-11-14T00:00:00.000Z').valueOf();
sats=[{"LAUNCH_DATE":"2019-11-11","RCS_SIZE":"LARGE","SEMIMAJOR_AXIS":"6920.198","OBJECT_NAME":"STARLINK-1034","TIME_SYSTEM":"UTC","CENTER_NAME":"EARTH","DECAY_DATE":null,"EPHEMERIS_TYPE":"0","COUNTRY_CODE":"US","MEAN_MOTION":"15.08082161","MEAN_ELEMENT_THEORY":"SGP4","OBJECT_ID":"2019-074AC","EPOCH":"2021-11-13T20:42:24.987744","MEAN_ANOMALY":"267.8876","TLE_LINE1":"1 44739U 19074AC  21317.86278921  .00003691  00000-0  25493-3 0  9990","CLASSIFICATION_TYPE":"U","PERIAPSIS":"540.937","MEAN_MOTION_DOT":"0.00003691","OBJECT_TYPE":"PAYLOAD","PERIOD":"95.486","TLE_LINE2":"2 44739  52.9985  82.4071 0001627  92.2300 267.8876 15.08082161110818","ELEMENT_SET_NO":"999","ARG_OF_PERICENTER":"92.2300","GP_ID":"189710577","RA_OF_ASC_NODE":"82.4071","ECCENTRICITY":"0.00016270","SITE":"AFETR","FILE":"3214514","REF_FRAME":"TEME","REV_AT_EPOCH":"11081","BSTAR":"0.00025493000000","MEAN_MOTION_DDOT":"0.0000000000000","APOAPSIS":"543.189","INCLINATION":"52.9985","NORAD_CAT_ID":"44739"},{"REV_AT_EPOCH":"11079","BSTAR":"-0.00003164300000","MEAN_MOTION_DDOT":"0.0000000000000","NORAD_CAT_ID":"44740","APOAPSIS":"548.250","INCLINATION":"53.0551","OBJECT_TYPE":"PAYLOAD","MEAN_MOTION_DOT":"-0.00000753","ELEMENT_SET_NO":"999","ARG_OF_PERICENTER":"100.4979","PERIOD":"95.592","TLE_LINE2":"2 44740  53.0551  85.6839 0001481 100.4979 259.6177 15.06396315110797","GP_ID":"189709325","ECCENTRICITY":"0.00014810","RA_OF_ASC_NODE":"85.6839","REF_FRAME":"TEME","SITE":"AFETR","FILE":"3214514","EPOCH":"2021-11-13T18:28:31.837152","MEAN_ANOMALY":"259.6177","CLASSIFICATION_TYPE":"U","TLE_LINE1":"1 44740U 19074AD  21317.76981293 -.00000753  00000-0 -31643-4 0  9997","PERIAPSIS":"546.199","LAUNCH_DATE":"2019-11-11","SEMIMAJOR_AXIS":"6925.360","RCS_SIZE":"LARGE","OBJECT_NAME":"STARLINK-1035","TIME_SYSTEM":"UTC","DECAY_DATE":null,"CENTER_NAME":"EARTH","MEAN_ELEMENT_THEORY":"SGP4","COUNTRY_CODE":"US","MEAN_MOTION":"15.06396315","EPHEMERIS_TYPE":"0","OBJECT_ID":"2019-074AD"},{"SITE":"AFETR","FILE":"3214514","REF_FRAME":"TEME","ECCENTRICITY":"0.00011090","RA_OF_ASC_NODE":"85.3400","GP_ID":"189709575","TLE_LINE2":"2 44741  53.0546  85.3400 0001109  89.2819 270.8297 15.06395706110800","PERIOD":"95.592","ARG_OF_PERICENTER":"89.2819","ELEMENT_SET_NO":"999","MEAN_MOTION_DOT":"0.00001014","OBJECT_TYPE":"PAYLOAD","NORAD_CAT_ID":"44741","APOAPSIS":"547.995","INCLINATION":"53.0546","MEAN_MOTION_DDOT":"0.0000000000000","BSTAR":"0.00008697000000","REV_AT_EPOCH":"11080","OBJECT_ID":"2019-074AE","MEAN_MOTION":"15.06395706","COUNTRY_CODE":"US","EPHEMERIS_TYPE":"0","MEAN_ELEMENT_THEORY":"SGP4","CENTER_NAME":"EARTH","DECAY_DATE":null,"TIME_SYSTEM":"UTC","OBJECT_NAME":"STARLINK-1036","RCS_SIZE":"LARGE","SEMIMAJOR_AXIS":"6925.362","LAUNCH_DATE":"2019-11-11","PERIAPSIS":"546.459","TLE_LINE1":"1 44741U 19074AE  21317.84723555  .00001014  00000-0  86970-4 0  9994","CLASSIFICATION_TYPE":"U","MEAN_ANOMALY":"270.8297","EPOCH":"2021-11-13T20:20:01.151520"},{"GP_ID":"189710827","MEAN_MOTION_DOT":"0.00004481","OBJECT_TYPE":"PAYLOAD","TLE_LINE2":"2 44742  52.9976  78.9458 0001882 123.4992 236.6177 15.09192494110863","PERIOD":"95.415","ELEMENT_SET_NO":"999","ARG_OF_PERICENTER":"123.4992","FILE":"3214514","SITE":"AFETR","REF_FRAME":"TEME","RA_OF_ASC_NODE":"78.9458","ECCENTRICITY":"0.00018820","MEAN_MOTION_DDOT":"0.0000000000000","APOAPSIS":"539.970","NORAD_CAT_ID":"44742","INCLINATION":"52.9976","REV_AT_EPOCH":"11086","BSTAR":"0.00029663000000","RCS_SIZE":"LARGE","SEMIMAJOR_AXIS":"6916.803","OBJECT_NAME":"STARLINK-1037","LAUNCH_DATE":"2019-11-11","COUNTRY_CODE":"US","MEAN_MOTION":"15.09192494","EPHEMERIS_TYPE":"0","MEAN_ELEMENT_THEORY":"SGP4","OBJECT_ID":"2019-074AF","TIME_SYSTEM":"UTC","CENTER_NAME":"EARTH","DECAY_DATE":null,"MEAN_ANOMALY":"236.6177","TLE_LINE1":"1 44742U 19074AF  21317.82596600  .00004481  00000-0  29663-3 0  9998","CLASSIFICATION_TYPE":"U","EPOCH":"2021-11-13T19:49:23.462400","PERIAPSIS":"537.366"},{"PERIAPSIS":"546.140","MEAN_ANOMALY":"265.1099","TLE_LINE1":"1 44743U 19074AG  21317.83062304  .00000932  00000-0  81480-4 0  9992","CLASSIFICATION_TYPE":"U","EPOCH":"2021-11-13T19:56:05.830656","EPHEMERIS_TYPE":"0","COUNTRY_CODE":"US","MEAN_MOTION":"15.06403133","MEAN_ELEMENT_THEORY":"SGP4","OBJECT_ID":"2019-074AG","TIME_SYSTEM":"UTC","CENTER_NAME":"EARTH","DECAY_DATE":null,"RCS_SIZE":"LARGE","SEMIMAJOR_AXIS":"6925.339","OBJECT_NAME":"STARLINK-1038","LAUNCH_DATE":"2019-11-11","MEAN_MOTION_DDOT":"0.0000000000000","INCLINATION":"53.0528","APOAPSIS":"548.268","NORAD_CAT_ID":"44743","REV_AT_EPOCH":"11061","BSTAR":"0.00008148000000","FILE":"3214514","SITE":"AFETR","REF_FRAME":"TEME","ECCENTRICITY":"0.00015370","RA_OF_ASC_NODE":"105.4149","GP_ID":"189711078","OBJECT_TYPE":"PAYLOAD","MEAN_MOTION_DOT":"0.00000932","TLE_LINE2":"2 44743  53.0528 105.4149 0001537  95.0066 265.1099 15.06403133110610","PERIOD":"95.592","ARG_OF_PERICENTER":"95.0066","ELEMENT_SET_NO":"999"},{"CENTER_NAME":"EARTH","DECAY_DATE":null,"TIME_SYSTEM":"UTC","OBJECT_ID":"2019-074AH","MEAN_MOTION":"15.06403262","COUNTRY_CODE":"US","EPHEMERIS_TYPE":"0","MEAN_ELEMENT_THEORY":"SGP4","LAUNCH_DATE":"2019-11-11","OBJECT_NAME":"STARLINK-1039","RCS_SIZE":"LARGE","SEMIMAJOR_AXIS":"6925.339","PERIAPSIS":"546.057","EPOCH":"2021-11-13T17:00:57.562848","TLE_LINE1":"1 44744U 19074AH  21317.70899957  .00001471  00000-0  11765-3 0  9998","CLASSIFICATION_TYPE":"U","MEAN_ANOMALY":"269.2017","ECCENTRICITY":"0.00016550","RA_OF_ASC_NODE":"105.9614","SITE":"AFETR","FILE":"3214514","REF_FRAME":"TEME","TLE_LINE2":"2 44744  53.0540 105.9614 0001655  90.9161 269.2017 15.06403262110504","PERIOD":"95.592","ARG_OF_PERICENTER":"90.9161","ELEMENT_SET_NO":"999","OBJECT_TYPE":"PAYLOAD","MEAN_MOTION_DOT":"0.00001471","GP_ID":"189709826","BSTAR":"0.00011765000000","REV_AT_EPOCH":"11050","APOAPSIS":"548.350","NORAD_CAT_ID":"44744","INCLINATION":"53.0540","MEAN_MOTION_DDOT":"0.0000000000000"},{"MEAN_MOTION_DDOT":"0.0000000000000","INCLINATION":"53.0555","APOAPSIS":"548.263","NORAD_CAT_ID":"44746","REV_AT_EPOCH":"11053","BSTAR":"-0.00004116400000","GP_ID":"189710076","OBJECT_TYPE":"PAYLOAD","MEAN_MOTION_DOT":"-0.00000894","ELEMENT_SET_NO":"999","ARG_OF_PERICENTER":"84.9395","PERIOD":"95.593","TLE_LINE2":"2 44746  53.0555 105.1203 0001468  84.9395 275.1761 15.06389188110537","REF_FRAME":"TEME","FILE":"3214514","SITE":"AFETR","RA_OF_ASC_NODE":"105.1203","ECCENTRICITY":"0.00014680","MEAN_ANOMALY":"275.1761","CLASSIFICATION_TYPE":"U","TLE_LINE1":"1 44746U 19074AK  21317.89330864 -.00000894  00000-0 -41164-4 0  9994","EPOCH":"2021-11-13T21:26:21.866496","PERIAPSIS":"546.230","RCS_SIZE":"LARGE","SEMIMAJOR_AXIS":"6925.382","OBJECT_NAME":"STARLINK-1041","LAUNCH_DATE":"2019-11-11","MEAN_ELEMENT_THEORY":"SGP4","COUNTRY_CODE":"US","EPHEMERIS_TYPE":"0","MEAN_MOTION":"15.06389188","OBJECT_ID":"2019-074AK","TIME_SYSTEM":"UTC","DECAY_DATE":null,"CENTER_NAME":"EARTH"},{"MEAN_ANOMALY":"254.3573","CLASSIFICATION_TYPE":"U","TLE_LINE1":"1 44747U 19074AL  21317.79008456 -.00000728  00000-0 -29955-4 0  9993","EPOCH":"2021-11-13T18:57:43.305984","PERIAPSIS":"546.198","SEMIMAJOR_AXIS":"6925.344","RCS_SIZE":"LARGE","OBJECT_NAME":"STARLINK-1042","LAUNCH_DATE":"2019-11-11","MEAN_ELEMENT_THEORY":"SGP4","MEAN_MOTION":"15.06401632","COUNTRY_CODE":"US","EPHEMERIS_TYPE":"0","OBJECT_ID":"2019-074AL","TIME_SYSTEM":"UTC","DECAY_DATE":null,"CENTER_NAME":"EARTH","MEAN_MOTION_DDOT":"0.0000000000000","NORAD_CAT_ID":"44747","APOAPSIS":"548.219","INCLINATION":"53.0529","REV_AT_EPOCH":"11052","BSTAR":"-0.00002995500000","GP_ID":"189710327","MEAN_MOTION_DOT":"-0.00000728","OBJECT_TYPE":"PAYLOAD","ELEMENT_SET_NO":"999","ARG_OF_PERICENTER":"105.7577","PERIOD":"95.592","TLE_LINE2":"2 44747  53.0529 105.5976 0001459 105.7577 254.3573 15.06401632110522","REF_FRAME":"TEME","FILE":"3214514","SITE":"AFETR","ECCENTRICITY":"0.00014590","RA_OF_ASC_NODE":"105.5976"},{"RA_OF_ASC_NODE":"106.0551","ECCENTRICITY":"0.00015720","REF_FRAME":"TEME","FILE":"3214514","SITE":"AFETR","ARG_OF_PERICENTER":"86.9172","ELEMENT_SET_NO":"999","TLE_LINE2":"2 44748  53.0542 106.0551 0001572  86.9172 273.1996 15.06400753110509","PERIOD":"95.592","OBJECT_TYPE":"PAYLOAD","MEAN_MOTION_DOT":"0.00000832","GP_ID":"189710578","BSTAR":"0.00007474000000","REV_AT_EPOCH":"11050","INCLINATION":"53.0542","APOAPSIS":"548.300","NORAD_CAT_ID":"44748","MEAN_MOTION_DDOT":"0.0000000000000","DECAY_DATE":null,"CENTER_NAME":"EARTH","TIME_SYSTEM":"UTC","OBJECT_ID":"2019-074AM","MEAN_ELEMENT_THEORY":"SGP4","EPHEMERIS_TYPE":"0","COUNTRY_CODE":"US","MEAN_MOTION":"15.06400753","LAUNCH_DATE":"2019-11-11","OBJECT_NAME":"STARLINK-1043","SEMIMAJOR_AXIS":"6925.346","RCS_SIZE":"LARGE","PERIAPSIS":"546.123","EPOCH":"2021-11-13T16:29:06.109728","CLASSIFICATION_TYPE":"U","TLE_LINE1":"1 44748U 19074AM  21317.68687627  .00000832  00000-0  74740-4 0  9991","MEAN_ANOMALY":"273.1996"},{"PERIAPSIS":"546.209","EPOCH":"2021-11-13T20:01:25.654080","MEAN_ANOMALY":"270.5571","CLASSIFICATION_TYPE":"U","TLE_LINE1":"1 44751U 19074AQ  21317.83432470 -.00001125  00000-0 -56671-4 0  9997","TIME_SYSTEM":"UTC","DECAY_DATE":null,"CENTER_NAME":"EARTH","MEAN_ELEMENT_THEORY":"SGP4","EPHEMERIS_TYPE":"0","COUNTRY_CODE":"US","MEAN_MOTION":"15.06396346","OBJECT_ID":"2019-074AQ","LAUNCH_DATE":"2019-11-11","RCS_SIZE":"LARGE","SEMIMAJOR_AXIS":"6925.360","OBJECT_NAME":"STARLINK-1046","REV_AT_EPOCH":"11052","BSTAR":"-0.00005667100000","MEAN_MOTION_DDOT":"0.0000000000000","INCLINATION":"53.0553","APOAPSIS":"548.241","NORAD_CAT_ID":"44751","ECCENTRICITY":"0.00014670","RA_OF_ASC_NODE":"105.4060","REF_FRAME":"TEME","SITE":"AFETR","FILE":"3214514","OBJECT_TYPE":"PAYLOAD","MEAN_MOTION_DOT":"-0.00001125","ELEMENT_SET_NO":"999","ARG_OF_PERICENTER":"89.5586","TLE_LINE2":"2 44751  53.0553 105.4060 0001467  89.5586 270.5571 15.06396346110528","PERIOD":"95.592","GP_ID":"189709326"}];
